IRIDIUM 921             
1 24873U 97034E   24280.90052082  .00140254  00000+0  23079-2 0  9997
2 24873  86.3767 232.3421 0008382 119.2297 240.9802 15.51827660492700
IRIDIUM 26              
1 24903U 97043A   24281.05981044  .00002594  00000+0  87522-3 0  9995
2 24903  86.4001 216.8053 0002304  90.0182 270.1279 14.36661409420861
IRIDIUM 22              
1 24907U 97043E   24280.85403455  .00002410  00000+0  83118-3 0  9995
2 24907  86.3999 220.2137 0002430  85.7363 274.4111 14.35526432420423
DUMMY MASS 1            
1 24925U 97048A   24280.88318589  .00002392  00000+0  26760-3 0  9995
2 24925  86.3312 252.3438 0005648 346.4276  13.6796 14.86482247467497
DUMMY MASS 2            
1 24926U 97048B   24281.47666718  .00002196  00000+0  24681-3 0  9994
2 24926  86.3313 253.6324 0006793 353.7650   6.3488 14.86239755467600
IRIDIUM 29              
1 24944U 97051A   24280.89166165  .00002524  00000+0  86319-3 0  9995
2 24944  86.3927 250.0395 0002444  83.5145 276.6330 14.35972510416919
IRIDIUM 33              
1 24946U 97051C   24281.16492607  .00001696  00000+0  59417-3 0  9999
2 24946  86.3839 249.1714 0007973 167.6747 192.4646 14.34551844416479
IRIDIUM 28              
1 24948U 97051E   24280.89105554  .00002410  00000+0  80833-3 0  9993
2 24948  86.3935 247.6981 0002321  99.4268 260.7191 14.36923864417538
